SAUDISAT 1C (SO-50)     
1 27607U 02058C   26176.85402013  .00000895  00000+0  12290-3 0  9990
2 27607  64.5519 102.1706 0075054 260.8502  98.4108 14.83063806265748
SAUDISAT 2              
1 28371U 04025F   26176.54641450  .00000247  00000+0  66358-4 0  9997
2 28371  98.5508 176.7444 0023440 271.2500  88.6012 14.56688292166965
SAUDISAT 3              
1 31118U 07012B   26176.82695600  .00000238  00000+0  46632-4 0  9999
2 31118  98.1457 127.2332 0014209 194.8423 165.2368 14.71430111 29013
PISAT                   
1 41784U 16059B   26176.79466706  .00000880  00000+0  15727-3 0  9992
2 41784  97.8179 176.8776 0029108 175.0271 185.1230 14.68997047521005
FLYING LAPTOP           
1 42831U 17042G   26176.85087811  .00006860  00000+0  53664-3 0  9998
2 42831  97.4722 332.0529 0019965  94.0283 266.3224 15.01202832487751
SALSAT                  
1 46495U 20068K   26176.71389502  .00008822  00000+0  30719-3 0  9993
2 46495  97.8851 180.2981 0007800 271.7296  88.3050 15.29911798316664
