OBJECT_NAME,OBJECT_ID,EPOCH,MEAN_MOTION,ECCENTRICITY,INCLINATION,RA_OF_ASC_NODE,ARG_OF_PERICENTER,MEAN_ANOMALY,EPHEMERIS_TYPE,CLASSIFICATION_TYPE,NORAD_CAT_ID,ELEMENT_SET_NO,REV_AT_EPOCH,BSTAR,MEAN_MOTION_DOT,MEAN_MOTION_DDOT
SAUDISAT 1C (SO-50),2002-058C,2026-06-25T20:29:47.339232,14.83063806,.0075054,64.5519,102.1706,260.8502,98.4108,0,U,27607,999,26574,.1229E-3,.895E-5,0
SAUDISAT 2,2004-025F,2026-06-25T13:06:50.212800,14.56688292,.002344,98.5508,176.7444,271.2500,88.6012,0,U,28371,999,16696,.66358E-4,.247E-5,0
SAUDISAT 3,2007-012B,2026-06-25T19:50:48.998400,14.71430111,.0014209,98.1457,127.2332,194.8423,165.2368,0,U,31118,999,2901,.46632E-4,.238E-5,0
PISAT,2016-059B,2026-06-25T19:04:19.233984,14.68997047,.0029108,97.8179,176.8776,175.0271,185.1230,0,U,41784,999,52100,.15727E-3,.88E-5,0
FLYING LAPTOP,2017-042G,2026-06-25T20:25:15.868704,15.01202832,.0019965,97.4722,332.0529,94.0283,266.3224,0,U,42831,999,48775,.53664E-3,.686E-4,0
SALSAT,2020-068K,2026-06-25T17:08:00.529728,15.29911798,.00078,97.8851,180.2981,271.7296,88.3050,0,U,46495,999,31666,.30719E-3,.8822E-4,0
